ATLAS CENTAUR 2         
1 00694U 63047A   26083.39144378  .00002225  00000+0  25803-3 0  9998
2 00694  30.3547 113.4760 0547414 209.8640 146.9631 14.12121854133702
THOR AGENA D R/B        
1 00733U 64002A   26083.45364742  .00000168  00000+0  77264-4 0  9993
2 00733  99.1219  97.5957 0032364 214.0495 145.8611 14.34027648240417
SL-3 R/B                
1 00877U 64053B   26083.26832193  .00000167  00000+0  56518-4 0  9995
2 00877  65.0759 288.4951 0080258 287.6320  71.6027 14.61377786268924
SL-8 R/B                
1 02802U 67045B   26083.38419895  .00000300  00000+0  90683-4 0  9992
2 02802  74.0120 320.6483 0064747 323.6290  36.0475 14.45634238 91147
SL-8 R/B                
1 03230U 68040B   26083.55001000  .00003197  00000+0  23708-3 0  9998
2 03230  74.0292 283.3256 0023443 101.2942 259.0882 15.03350689 92249
OAO 2                   
1 03597U 68110A   26083.54636586  .00000229  00000+0  66745-4 0  9996
2 03597  34.9926 182.2722 0006057 313.0592  46.9592 14.47315827 21251
ISIS 1                  
1 03669U 69009A   26083.23414609  .00000119  00000+0  69705-4 0  9997
2 03669  88.4518 153.7218 1707871  59.8229 316.0988 11.30417954350179
SERT 2                  
1 04327U 70009A   26083.43576844  .00000015  00000+0  76901-4 0  9994
2 04327  99.2778  25.7239 0005530 121.2360 348.5040 13.58731154781891
SL-3 R/B                
1 05118U 71028B   26083.45662350  .00040956  00000+0  45813-3 0  9990
2 05118  81.2374  33.7746 0013940 222.9211 137.0957 15.62420340990971
ASTEX 1                 
1 05560U 71089A   26083.44459692  .00000425  00000+0  10803-3 0  9998
2 05560  92.7100 156.5291 0016927  41.7562 318.4932 14.50784460864441
SL-8 R/B                
1 05730U 71119B   26083.47573828  .00006711  00000+0  35167-3 0  9996
2 05730  73.8860 148.0764 0546879 111.5847 254.4484 14.38159606657614
OAO 3 (COPERNICUS)      
1 06153U 72065A   26083.11725781  .00000345  00000+0  74990-4 0  9990
2 06153  35.0048 215.1139 0007327 278.5947 248.0783 14.60009073848305
ATLAS CENTAUR R/B       
1 06155U 72065B   26083.08497701  .00001334  00000+0  18466-3 0  9990
2 06155  35.0006 221.3881 0032999 131.9783 228.3736 14.77725823843396
SL-8 R/B                
1 08459U 75112B   26083.45828255  .00000251  00000+0  90984-4 0  9991
2 08459  74.0635 351.7471 0014501  78.8219 281.4565 14.38212151633996
SL-3 R/B                
1 10114U 77057B   26083.47914186  .00012884  00000+0  26662-3 0  9999
2 10114  97.5797 256.0570 0006539 221.9939 138.0809 15.45907743670610
SEASAT 1                
1 10967U 78064A   26083.43725322  .00000266  00000+0  11276-3 0  9998
2 10967 108.0082 156.4442 0002553 278.8065  81.2791 14.46171939508647
SL-14 R/B               
1 11267U 79011B   26083.40283803  .00000625  00000+0  59179-4 0  9999
2 11267  82.5207  82.6048 0016370  14.1913 345.9763 14.91925902530970
