[{"OBJECT_NAME":"ATLAS CENTAUR 2","OBJECT_ID":"1963-047A","EPOCH":"2026-03-24T09:23:40.742592","MEAN_MOTION":14.12121854,"ECCENTRICITY":0.0547414,"INCLINATION":30.3547,"RA_OF_ASC_NODE":113.476,"ARG_OF_PERICENTER":209.864,"MEAN_ANOMALY":146.9631,"EPHEMERIS_TYPE":0,"CLASSIFICATION_TYPE":"U","NORAD_CAT_ID":694,"ELEMENT_SET_NO":999,"REV_AT_EPOCH":13370,"BSTAR":0.00025803,"MEAN_MOTION_DOT":2.225e-5,"MEAN_MOTION_DDOT":0},{"OBJECT_NAME":"THOR AGENA D R/B","OBJECT_ID":"1964-002A","EPOCH":"2026-03-24T10:53:15.137088","MEAN_MOTION":14.34027648,"ECCENTRICITY":0.0032364,"INCLINATION":99.1219,"RA_OF_ASC_NODE":97.5957,"ARG_OF_PERICENTER":214.0495,"MEAN_ANOMALY":145.8611,"EPHEMERIS_TYPE":0,"CLASSIFICATION_TYPE":"U","NORAD_CAT_ID":733,"ELEMENT_SET_NO":999,"REV_AT_EPOCH":24041,"BSTAR":7.7264e-5,"MEAN_MOTION_DOT":1.68e-6,"MEAN_MOTION_DDOT":0},{"OBJECT_NAME":"SL-3 R/B","OBJECT_ID":"1964-053B","EPOCH":"2026-03-24T06:26:23.014752","MEAN_MOTION":14.61377786,"ECCENTRICITY":0.0080258,"INCLINATION":65.0759,"RA_OF_ASC_NODE":288.4951,"ARG_OF_PERICENTER":287.632,"MEAN_ANOMALY":71.6027,"EPHEMERIS_TYPE":0,"CLASSIFICATION_TYPE":"U","NORAD_CAT_ID":877,"ELEMENT_SET_NO":999,"REV_AT_EPOCH":26892,"BSTAR":5.6518e-5,"MEAN_MOTION_DOT":1.67e-6,"MEAN_MOTION_DDOT":0},{"OBJECT_NAME":"SL-8 R/B","OBJECT_ID":"1967-045B","EPOCH":"2026-03-24T09:13:14.789280","MEAN_MOTION":14.45634238,"ECCENTRICITY":0.0064747,"INCLINATION":74.012,"RA_OF_ASC_NODE":320.6483,"ARG_OF_PERICENTER":323.629,"MEAN_ANOMALY":36.0475,"EPHEMERIS_TYPE":0,"CLASSIFICATION_TYPE":"U","NORAD_CAT_ID":2802,"ELEMENT_SET_NO":999,"REV_AT_EPOCH":9114,"BSTAR":9.0683e-5,"MEAN_MOTION_DOT":3.0e-6,"MEAN_MOTION_DDOT":0},{"OBJECT_NAME":"SL-8 R/B","OBJECT_ID":"1968-040B","EPOCH":"2026-03-24T13:12:00.864000","MEAN_MOTION":15.03350689,"ECCENTRICITY":0.0023443,"INCLINATION":74.0292,"RA_OF_ASC_NODE":283.3256,"ARG_OF_PERICENTER":101.2942,"MEAN_ANOMALY":259.0882,"EPHEMERIS_TYPE":0,"CLASSIFICATION_TYPE":"U","NORAD_CAT_ID":3230,"ELEMENT_SET_NO":999,"REV_AT_EPOCH":9224,"BSTAR":0.00023708,"MEAN_MOTION_DOT":3.197e-5,"MEAN_MOTION_DDOT":0},{"OBJECT_NAME":"OAO 2","OBJECT_ID":"1968-110A","EPOCH":"2026-03-24T13:06:46.010304","MEAN_MOTION":14.47315827,"ECCENTRICITY":0.0006057,"INCLINATION":34.9926,"RA_OF_ASC_NODE":182.2722,"ARG_OF_PERICENTER":313.0592,"MEAN_ANOMALY":46.9592,"EPHEMERIS_TYPE":0,"CLASSIFICATION_TYPE":"U","NORAD_CAT_ID":3597,"ELEMENT_SET_NO":999,"REV_AT_EPOCH":2125,"BSTAR":6.6745e-5,"MEAN_MOTION_DOT":2.29e-6,"MEAN_MOTION_DDOT":0},{"OBJECT_NAME":"ISIS 1","OBJECT_ID":"1969-009A","EPOCH":"2026-03-24T05:37:10.222176","MEAN_MOTION":11.30417954,"ECCENTRICITY":0.1707871,"INCLINATION":88.4518,"RA_OF_ASC_NODE":153.7218,"ARG_OF_PERICENTER":59.8229,"MEAN_ANOMALY":316.0988,"EPHEMERIS_TYPE":0,"CLASSIFICATION_TYPE":"U","NORAD_CAT_ID":3669,"ELEMENT_SET_NO":999,"REV_AT_EPOCH":35017,"BSTAR":6.9705e-5,"MEAN_MOTION_DOT":1.19e-6,"MEAN_MOTION_DDOT":0},{"OBJECT_NAME":"SERT 2","OBJECT_ID":"1970-009A","EPOCH":"2026-03-24T10:27:30.393216","MEAN_MOTION":13.58731154,"ECCENTRICITY":0.000553,"INCLINATION":99.2778,"RA_OF_ASC_NODE":25.7239,"ARG_OF_PERICENTER":121.236,"MEAN_ANOMALY":348.504,"EPHEMERIS_TYPE":0,"CLASSIFICATION_TYPE":"U","NORAD_CAT_ID":4327,"ELEMENT_SET_NO":999,"REV_AT_EPOCH":78189,"BSTAR":7.6901e-5,"MEAN_MOTION_DOT":1.5e-7,"MEAN_MOTION_DDOT":0},{"OBJECT_NAME":"SL-3 R/B","OBJECT_ID":"1971-028B","EPOCH":"2026-03-24T10:57:32.270400","MEAN_MOTION":15.6242034,"ECCENTRICITY":0.001394,"INCLINATION":81.2374,"RA_OF_ASC_NODE":33.7746,"ARG_OF_PERICENTER":222.9211,"MEAN_ANOMALY":137.0957,"EPHEMERIS_TYPE":0,"CLASSIFICATION_TYPE":"U","NORAD_CAT_ID":5118,"ELEMENT_SET_NO":999,"REV_AT_EPOCH":99097,"BSTAR":0.00045813,"MEAN_MOTION_DOT":0.00040956,"MEAN_MOTION_DDOT":0},{"OBJECT_NAME":"ASTEX 1","OBJECT_ID":"1971-089A","EPOCH":"2026-03-24T10:40:13.173888","MEAN_MOTION":14.5078446,"ECCENTRICITY":0.0016927,"INCLINATION":92.71,"RA_OF_ASC_NODE":156.5291,"ARG_OF_PERICENTER":41.7562,"MEAN_ANOMALY":318.4932,"EPHEMERIS_TYPE":0,"CLASSIFICATION_TYPE":"U","NORAD_CAT_ID":5560,"ELEMENT_SET_NO":999,"REV_AT_EPOCH":86444,"BSTAR":0.00010803,"MEAN_MOTION_DOT":4.25e-6,"MEAN_MOTION_DDOT":0},{"OBJECT_NAME":"SL-8 R/B","OBJECT_ID":"1971-119B","EPOCH":"2026-03-24T11:25:03.787392","MEAN_MOTION":14.38159606,"ECCENTRICITY":0.0546879,"INCLINATION":73.886,"RA_OF_ASC_NODE":148.0764,"ARG_OF_PERICENTER":111.5847,"MEAN_ANOMALY":254.4484,"EPHEMERIS_TYPE":0,"CLASSIFICATION_TYPE":"U","NORAD_CAT_ID":5730,"ELEMENT_SET_NO":999,"REV_AT_EPOCH":65761,"BSTAR":0.00035167,"MEAN_MOTION_DOT":6.711e-5,"MEAN_MOTION_DDOT":0},{"OBJECT_NAME":"OAO 3 (COPERNICUS)","OBJECT_ID":"1972-065A","EPOCH":"2026-03-24T02:48:51.074784","MEAN_MOTION":14.60009073,"ECCENTRICITY":0.00073275,"INCLINATION":35.0048,"RA_OF_ASC_NODE":215.1139,"ARG_OF_PERICENTER":278.5947,"MEAN_ANOMALY":248.0783,"EPHEMERIS_TYPE":0,"CLASSIFICATION_TYPE":"U","NORAD_CAT_ID":6153,"ELEMENT_SET_NO":999,"REV_AT_EPOCH":84830,"BSTAR":7.4989771e-5,"MEAN_MOTION_DOT":3.45e-6,"MEAN_MOTION_DDOT":0},{"OBJECT_NAME":"ATLAS CENTAUR R/B","OBJECT_ID":"1972-065B","EPOCH":"2026-03-24T02:02:22.013664","MEAN_MOTION":14.77725823,"ECCENTRICITY":0.00329995,"INCLINATION":35.0006,"RA_OF_ASC_NODE":221.3881,"ARG_OF_PERICENTER":131.9783,"MEAN_ANOMALY":228.3736,"EPHEMERIS_TYPE":0,"CLASSIFICATION_TYPE":"U","NORAD_CAT_ID":6155,"ELEMENT_SET_NO":999,"REV_AT_EPOCH":84339,"BSTAR":0.00018465751,"MEAN_MOTION_DOT":1.334e-5,"MEAN_MOTION_DDOT":0},{"OBJECT_NAME":"SL-8 R/B","OBJECT_ID":"1975-112B","EPOCH":"2026-03-24T10:59:55.612320","MEAN_MOTION":14.38212151,"ECCENTRICITY":0.0014501,"INCLINATION":74.0635,"RA_OF_ASC_NODE":351.7471,"ARG_OF_PERICENTER":78.8219,"MEAN_ANOMALY":281.4565,"EPHEMERIS_TYPE":0,"CLASSIFICATION_TYPE":"U","NORAD_CAT_ID":8459,"ELEMENT_SET_NO":999,"REV_AT_EPOCH":63399,"BSTAR":9.0984e-5,"MEAN_MOTION_DOT":2.51e-6,"MEAN_MOTION_DDOT":0},{"OBJECT_NAME":"SL-3 R/B","OBJECT_ID":"1977-057B","EPOCH":"2026-03-24T11:29:57.856704","MEAN_MOTION":15.45907743,"ECCENTRICITY":0.0006539,"INCLINATION":97.5797,"RA_OF_ASC_NODE":256.057,"ARG_OF_PERICENTER":221.9939,"MEAN_ANOMALY":138.0809,"EPHEMERIS_TYPE":0,"CLASSIFICATION_TYPE":"U","NORAD_CAT_ID":10114,"ELEMENT_SET_NO":999,"REV_AT_EPOCH":67061,"BSTAR":0.00026662,"MEAN_MOTION_DOT":0.00012884,"MEAN_MOTION_DDOT":0},{"OBJECT_NAME":"SEASAT 1","OBJECT_ID":"1978-064A","EPOCH":"2026-03-24T10:29:38.678208","MEAN_MOTION":14.46171939,"ECCENTRICITY":0.0002553,"INCLINATION":108.0082,"RA_OF_ASC_NODE":156.4442,"ARG_OF_PERICENTER":278.8065,"MEAN_ANOMALY":81.2791,"EPHEMERIS_TYPE":0,"CLASSIFICATION_TYPE":"U","NORAD_CAT_ID":10967,"ELEMENT_SET_NO":999,"REV_AT_EPOCH":50864,"BSTAR":0.00011276,"MEAN_MOTION_DOT":2.66e-6,"MEAN_MOTION_DDOT":0},{"OBJECT_NAME":"SL-14 R/B","OBJECT_ID":"1979-011B","EPOCH":"2026-03-24T09:40:05.205792","MEAN_MOTION":14.91925902,"ECCENTRICITY":0.001637,"INCLINATION":82.5207,"RA_OF_ASC_NODE":82.6048,"ARG_OF_PERICENTER":14.1913,"MEAN_ANOMALY":345.9763,"EPHEMERIS_TYPE":0,"CLASSIFICATION_TYPE":"U","NORAD_CAT_ID":11267,"ELEMENT_SET_NO":999,"REV_AT_EPOCH":53097,"BSTAR":5.9179e-5,"MEAN_MOTION_DOT":6.25e-6,"MEAN_MOTION_DDOT":0}]
